{
    "links": {
        "self": "http://www.neowsapp.com/rest/v1/neo/3305962?api_key=iIulBulltgU6a56xZRHN4H3l9WmuAYTsLGpBGhQ2"
    },
    "id": "3305962",
    "neo_reference_id": "3305962",
    "name": "(2005 XX)",
    "designation": "2005 XX",
    "nasa_jpl_url": "http://ssd.jpl.nasa.gov/sbdb.cgi?sstr=3305962",
    "absolute_magnitude_h": 26.8,
    "estimated_diameter": {
        "kilometers": {
            "estimated_diameter_min": 0.0116025908,
            "estimated_diameter_max": 0.0259441818
        },
        "meters": {
            "estimated_diameter_min": 11.6025908209,
            "estimated_diameter_max": 25.9441817907
        },
        "miles": {
            "estimated_diameter_min": 0.0072095135,
            "estimated_diameter_max": 0.0161209622
        },
        "feet": {
            "estimated_diameter_min": 38.066244069,
            "estimated_diameter_max": 85.1187093863
        }
    },
    "is_potentially_hazardous_asteroid": false,
    "close_approach_data": [
        {
            "close_approach_date": "2005-12-08",
            "close_approach_date_full": "2005-Dec-08 17:00",
            "epoch_date_close_approach": 1134061200000,
            "relative_velocity": {
                "kilometers_per_second": "9.9497176406",
                "kilometers_per_hour": "35818.9835062993",
                "miles_per_hour": "22256.5233903447"
            },
            "miss_distance": {
                "astronomical": "0.0059058075",
                "lunar": "2.2973591175",
                "kilometers": "883496.222630025",
                "miles": "548979.096243345"
            },
            "orbiting_body": "Moon"
        },
        {
            "close_approach_date": "2005-12-09",
            "close_approach_date_full": "2005-Dec-09 01:10",
            "epoch_date_close_approach": 1134090600000,
            "relative_velocity": {
                "kilometers_per_second": "9.2469555496",
                "kilometers_per_hour": "33289.0399786218",
                "miles_per_hour": "20684.5148689386"
            },
            "miss_distance": {
                "astronomical": "0.005781352",
                "lunar": "2.248945928",
                "kilometers": "864877.94492024",
                "miles": "537410.234929712"
            },
            "orbiting_body": "Earth"
        }
    ],
    "orbital_data": {
        "orbit_id": "8",
        "orbit_determination_date": "2017-04-06 09:09:43",
        "first_observation_date": "2005-12-01",
        "last_observation_date": "2005-12-06",
        "data_arc_in_days": 5,
        "observations_used": 34,
        "orbit_uncertainty": "8",
        "minimum_orbit_intersection": ".00580665",
        "jupiter_tisserand_invariant": "3.325",
        "epoch_osculation": "2453708.5",
        "eccentricity": ".5903891446564423",
        "semi_major_axis": "2.31439572306334",
        "inclination": "1.145896529705662",
        "ascending_node_longitude": "239.9259694646643",
        "orbital_period": "1286.041117046023",
        "perihelion_distance": ".9480016117274463",
        "perihelion_argument": "223.2580202503433",
        "aphelion_distance": "3.680789834399234",
        "perihelion_time": "2453733.520726275490",
        "mean_anomaly": "352.9959770805259",
        "mean_motion": ".2799288414875127",
        "equinox": "J2000",
        "orbit_class": {
            "orbit_class_type": "APO",
            "orbit_class_description": "Near-Earth asteroid orbits which cross the Earth’s orbit similar to that of 1862 Apollo",
            "orbit_class_range": "a (semi-major axis) > 1.0 AU; q (perihelion) < 1.017 AU"
        }
    },
    "is_sentry_object": false
}